{
  "type": "FeatureCollection",
  "features": [
    {
      "type": "Feature",
      "properties": {
        "norad_id": 35915,
        "name": "IRIDIUM 33 DEB",
        "group": "iridium-33-debris",
        "lat": 50.26333598455452,
        "lon": 153.49594264964205,
        "alt_km": 613.4938951794384,
        "timestamp": "2025-12-23T18:59:32.350247+00:00",
        "meta_object_name": "IRIDIUM 33 DEB",
        "meta_object_id": "1997-051TY",
        "meta_epoch": "2025-12-22T16:27:49.238784",
        "meta_mean_motion": 14.80964903,
        "meta_eccentricity": 0.00122455,
        "meta_inclination": 86.3447,
        "meta_ra_of_asc_node": 338.4114,
        "meta_arg_of_pericenter": 150.5648,
        "meta_mean_anomaly": 209.6266,
        "meta_ephemeris_type": 0,
        "meta_classification_type": "U",
        "meta_norad_cat_id": 35915,
        "meta_element_set_no": 999,
        "meta_rev_at_epoch": 8233,
        "meta_bstar": 0.0017914035,
        "meta_mean_motion_dot": 0.00013917,
        "meta_mean_motion_ddot": 0,
        "tle_line1": "1 35915U 97051TY  25356.68598656  .00013917  00000+0  17914-2 0  9993",
        "tle_line2": "2 35915  86.3447 338.4114 0012245 150.5648 209.6266 14.80964903 82335"
      },
      "geometry": {
        "type": "Point",
        "coordinates": [
          153.49594264964205,
          50.26333598455452
        ]
      }
    },
    {
      "type": "Feature",
      "properties": {
        "norad_id": 35918,
        "name": "IRIDIUM 33 DEB",
        "group": "iridium-33-debris",
        "lat": -9.71295607861145,
        "lon": -108.31035043627482,
        "alt_km": 714.1711178031437,
        "timestamp": "2025-12-23T18:59:32.350256+00:00",
        "meta_object_name": "IRIDIUM 33 DEB",
        "meta_object_id": "1997-051UB",
        "meta_epoch": "2025-12-21T23:54:39.299616",
        "meta_mean_motion": 14.51316064,
        "meta_eccentricity": 0.00283531,
        "meta_inclination": 86.4007,
        "meta_ra_of_asc_node": 71.8428,
        "meta_arg_of_pericenter": 139.9313,
        "meta_mean_anomaly": 36.6776,
        "meta_ephemeris_type": 0,
        "meta_classification_type": "U",
        "meta_norad_cat_id": 35918,
        "meta_element_set_no": 999,
        "meta_rev_at_epoch": 85341,
        "meta_bstar": 0.0010087196,
        "meta_mean_motion_dot": 4.056e-05,
        "meta_mean_motion_ddot": 0,
        "tle_line1": "1 35918U 97051UB  25355.99628819  .00004056  00000+0  10087-2 0  9992",
        "tle_line2": "2 35918  86.4007  71.8428 0028353 139.9313  36.6776 14.51316064853410"
      },
      "geometry": {
        "type": "Point",
        "coordinates": [
          -108.31035043627482,
          -9.71295607861145
        ]
      }
    },
    {
      "type": "Feature",
      "properties": {
        "norad_id": 35929,
        "name": "IRIDIUM 33 DEB",
        "group": "iridium-33-debris",
        "lat": -5.440508730634885,
        "lon": 127.73770108375074,
        "alt_km": 572.9562160119249,
        "timestamp": "2025-12-23T18:59:32.350265+00:00",
        "meta_object_name": "IRIDIUM 33 DEB",
        "meta_object_id": "1997-051UN",
        "meta_epoch": "2025-12-19T03:54:47.819808",
        "meta_mean_motion": 15.02824577,
        "meta_eccentricity": 0.00169983,
        "meta_inclination": 86.3333,
        "meta_ra_of_asc_node": 309.5832,
        "meta_arg_of_pericenter": 16.9141,
        "meta_mean_anomaly": 343.2656,
        "meta_ephemeris_type": 0,
        "meta_classification_type": "U",
        "meta_norad_cat_id": 35929,
        "meta_element_set_no": 999,
        "meta_rev_at_epoch": 87876,
        "meta_bstar": 0.0020745591,
        "meta_mean_motion_dot": 0.00027961,
        "meta_mean_motion_ddot": 0,
        "tle_line1": "1 35929U 97051UN  25353.16305347  .00027961  00000+0  20746-2 0  9992",
        "tle_line2": "2 35929  86.3333 309.5832 0016998  16.9141 343.2656 15.02824577878767"
      },
      "geometry": {
        "type": "Point",
        "coordinates": [
          127.73770108375074,
          -5.440508730634885
        ]
      }
    },
    {
      "type": "Feature",
      "properties": {
        "norad_id": 36011,
        "name": "IRIDIUM 33 DEB",
        "group": "iridium-33-debris",
        "lat": -24.631715185413768,
        "lon": -147.64049844856845,
        "alt_km": 747.7384783181878,
        "timestamp": "2025-12-23T18:59:32.350275+00:00",
        "meta_object_name": "IRIDIUM 33 DEB",
        "meta_object_id": "1997-051US",
        "meta_epoch": "2025-12-20T20:53:54.330144",
        "meta_mean_motion": 14.41351593,
        "meta_eccentricity": 0.0018529,
        "meta_inclination": 86.3402,
        "meta_ra_of_asc_node": 31.9321,
        "meta_arg_of_pericenter": 188.5725,
        "meta_mean_anomaly": 351.0197,
        "meta_ephemeris_type": 0,
        "meta_classification_type": "U",
        "meta_norad_cat_id": 36011,
        "meta_element_set_no": 999,
        "meta_rev_at_epoch": 64657,
        "meta_bstar": 0.00031216,
        "meta_mean_motion_dot": 1.032e-05,
        "meta_mean_motion_ddot": 0,
        "tle_line1": "1 36011U 97051US  25354.87076771  .00001032  00000+0  31216-3 0  9996",
        "tle_line2": "2 36011  86.3402  31.9321 0018529 188.5725 351.0197 14.41351593646576"
      },
      "geometry": {
        "type": "Point",
        "coordinates": [
          -147.64049844856845,
          -24.631715185413768
        ]
      }
    },
    {
      "type": "Feature",
      "properties": {
        "norad_id": 36012,
        "name": "IRIDIUM 33 DEB",
        "group": "iridium-33-debris",
        "lat": -29.741802827527525,
        "lon": -58.96236547296895,
        "alt_km": 864.061977617328,
        "timestamp": "2025-12-23T18:59:32.350284+00:00",
        "meta_object_name": "IRIDIUM 33 DEB",
        "meta_object_id": "1997-051UT",
        "meta_epoch": "2025-12-23T02:12:50.688576",
        "meta_mean_motion": 14.19255751,
        "meta_eccentricity": 0.02111422,
        "meta_inclination": 86.4409,
        "meta_ra_of_asc_node": 303.3574,
        "meta_arg_of_pericenter": 229.8799,
        "meta_mean_anomaly": 128.3722,
        "meta_ephemeris_type": 0,
        "meta_classification_type": "U",
        "meta_norad_cat_id": 36012,
        "meta_element_set_no": 999,
        "meta_rev_at_epoch": 65631,
        "meta_bstar": 0.004288895,
        "meta_mean_motion_dot": 0.00011258,
        "meta_mean_motion_ddot": 0,
        "tle_line1": "1 36012U 97051UT  25357.09225334  .00011258  00000+0  42889-2 0  9993",
        "tle_line2": "2 36012  86.4409 303.3574 0211142 229.8799 128.3722 14.19255751656313"
      },
      "geometry": {
        "type": "Point",
        "coordinates": [
          -58.96236547296895,
          -29.741802827527525
        ]
      }
    },
    {
      "type": "Feature",
      "properties": {
        "norad_id": 36028,
        "name": "IRIDIUM 33 DEB",
        "group": "iridium-33-debris",
        "lat": -25.424050970945896,
        "lon": 123.2506122614007,
        "alt_km": 600.0593834125139,
        "timestamp": "2025-12-23T18:59:32.350293+00:00",
        "meta_object_name": "IRIDIUM 33 DEB",
        "meta_object_id": "1997-051VK",
        "meta_epoch": "2025-12-19T03:17:05.091936",
        "meta_mean_motion": 14.95591145,
        "meta_eccentricity": 0.00208389,
        "meta_inclination": 86.3218,
        "meta_ra_of_asc_node": 303.6882,
        "meta_arg_of_pericenter": 33.6007,
        "meta_mean_anomaly": 326.6539,
        "meta_ephemeris_type": 0,
        "meta_classification_type": "U",
        "meta_norad_cat_id": 36028,
        "meta_element_set_no": 999,
        "meta_rev_at_epoch": 87220,
        "meta_bstar": 0.001783846,
        "meta_mean_motion_dot": 0.00019939,
        "meta_mean_motion_ddot": 0,
        "tle_line1": "1 36028U 97051VK  25353.13686449  .00019939  00000+0  17838-2 0  9999",
        "tle_line2": "2 36028  86.3218 303.6882 0020838  33.6007 326.6539 14.95591145872206"
      },
      "geometry": {
        "type": "Point",
        "coordinates": [
          123.2506122614007,
          -25.424050970945896
        ]
      }
    },
    {
      "type": "Feature",
      "properties": {
        "norad_id": 36080,
        "name": "IRIDIUM 33 DEB",
        "group": "iridium-33-debris",
        "lat": -79.30647864091544,
        "lon": -16.75834393490344,
        "alt_km": 756.6141619951704,
        "timestamp": "2025-12-23T18:59:32.350303+00:00",
        "meta_object_name": "IRIDIUM 33 DEB",
        "meta_object_id": "1997-051VM",
        "meta_epoch": "2025-12-19T07:27:26.572608",
        "meta_mean_motion": 14.4663152,
        "meta_eccentricity": 0.0018893,
        "meta_inclination": 86.3193,
        "meta_ra_of_asc_node": 5.1242,
        "meta_arg_of_pericenter": 135.9522,
        "meta_mean_anomaly": 224.319,
        "meta_ephemeris_type": 0,
        "meta_classification_type": "U",
        "meta_norad_cat_id": 36080,
        "meta_element_set_no": 999,
        "meta_rev_at_epoch": 47509,
        "meta_bstar": 0.00042458,
        "meta_mean_motion_dot": 1.555e-05,
        "meta_mean_motion_ddot": 0,
        "tle_line1": "1 36080U 97051VM  25353.31072422  .00001555  00000+0  42458-3 0  9999",
        "tle_line2": "2 36080  86.3193   5.1242 0018893 135.9522 224.3190 14.46631520475097"
      },
      "geometry": {
        "type": "Point",
        "coordinates": [
          -16.75834393490344,
          -79.30647864091544
        ]
      }
    }
  ]
}